STARLINK-3720           
1 52136U 22029BA  26068.26666077 -.00002854  00000+0 -16137-3 0  9995
2 52136  53.2169  71.0195 0001456  74.6079 285.5074 15.08818219220870
CURIUM ONE              
1 60242U 24128H   26068.68697111  .00012574  00000+0  74107-3 0  9992
2 60242  61.9790 197.7537 0050891 110.7183 249.9377 15.10847276 91418
